MALLIGYONG-1            
1 58400U 23179A   24046.82093837  .00010035  00000+0  43573-3 0  9998
2 58400  97.4210 295.4781 0014977 342.1658  17.9050 15.22410772 13114
